{
    "links": {
        "self": "http://www.neowsapp.com/rest/v1/neo/3748338?api_key=iIulBulltgU6a56xZRHN4H3l9WmuAYTsLGpBGhQ2"
    },
    "id": "3748338",
    "neo_reference_id": "3748338",
    "name": "(2016 FX7)",
    "designation": "2016 FX7",
    "nasa_jpl_url": "http://ssd.jpl.nasa.gov/sbdb.cgi?sstr=3748338",
    "absolute_magnitude_h": 26.8,
    "estimated_diameter": {
        "kilometers": {
            "estimated_diameter_min": 0.0116025908,
            "estimated_diameter_max": 0.0259441818
        },
        "meters": {
            "estimated_diameter_min": 11.6025908209,
            "estimated_diameter_max": 25.9441817907
        },
        "miles": {
            "estimated_diameter_min": 0.0072095135,
            "estimated_diameter_max": 0.0161209622
        },
        "feet": {
            "estimated_diameter_min": 38.066244069,
            "estimated_diameter_max": 85.1187093863
        }
    },
    "is_potentially_hazardous_asteroid": false,
    "close_approach_data": [
        {
            "close_approach_date": "2016-04-03",
            "close_approach_date_full": "2016-Apr-03 21:51",
            "epoch_date_close_approach": 1459720260000,
            "relative_velocity": {
                "kilometers_per_second": "7.7853328732",
                "kilometers_per_hour": "28027.1983435121",
                "miles_per_hour": "17415.0111040562"
            },
            "miss_distance": {
                "astronomical": "0.0258979391",
                "lunar": "10.0742983099",
                "kilometers": "3874276.526749717",
                "miles": "2407363.8027794146"
            },
            "orbiting_body": "Earth"
        }
    ],
    "orbital_data": {
        "orbit_id": "7",
        "orbit_determination_date": "2017-04-06 08:27:15",
        "first_observation_date": "2016-03-28",
        "last_observation_date": "2016-04-04",
        "data_arc_in_days": 7,
        "observations_used": 36,
        "orbit_uncertainty": "7",
        "minimum_orbit_intersection": ".0014361",
        "jupiter_tisserand_invariant": "4.008",
        "epoch_osculation": "2459000.5",
        "eccentricity": ".4381762881748911",
        "semi_major_axis": "1.75595260365728",
        "inclination": ".3184086698244128",
        "ascending_node_longitude": "7.786492430708689",
        "orbital_period": "849.8995726565382",
        "perihelion_distance": ".9865358095756976",
        "perihelion_argument": "213.4637050691781",
        "aphelion_distance": "2.525369397738863",
        "perihelion_time": "2459203.999562612460",
        "mean_anomaly": "273.8017656468557",
        "mean_motion": ".4235794575996137",
        "equinox": "J2000",
        "orbit_class": {
            "orbit_class_type": "APO",
            "orbit_class_description": "Near-Earth asteroid orbits which cross the Earth’s orbit similar to that of 1862 Apollo",
            "orbit_class_range": "a (semi-major axis) > 1.0 AU; q (perihelion) < 1.017 AU"
        }
    },
    "is_sentry_object": false
}